{
  "type": "FeatureCollection",
  "features": [
    {
      "type": "Feature",
      "properties": {
        "norad_id": 30947,
        "name": "FENGYUN 1C DEB",
        "group": "fengyun-1c-debris",
        "lat": -35.56532700179311,
        "lon": 65.21387882279156,
        "alt_km": 704.1499998904483,
        "timestamp": "2025-12-27T13:34:49.574967+00:00",
        "meta_object_name": "FENGYUN 1C DEB",
        "meta_object_id": "1999-025BAM",
        "meta_epoch": "2025-12-26T23:13:09.504768",
        "meta_mean_motion": 14.38066132,
        "meta_eccentricity": 0.00960007,
        "meta_inclination": 98.8085,
        "meta_ra_of_asc_node": 250.966,
        "meta_arg_of_pericenter": 205.2162,
        "meta_mean_anomaly": 154.4322,
        "meta_ephemeris_type": 0,
        "meta_classification_type": "U",
        "meta_norad_cat_id": 30947,
        "meta_element_set_no": 999,
        "meta_rev_at_epoch": 98697,
        "meta_bstar": 0.00029406522,
        "meta_mean_motion_dot": 8.91e-06,
        "meta_mean_motion_ddot": 0,
        "tle_line1": "1 30947U 99025BAM 25360.96747112  .00000891  00000+0  29407-3 0  9993",
        "tle_line2": "2 30947  98.8085 250.9660 0096000 205.2162 154.4322 14.38066132986978"
      },
      "geometry": {
        "type": "Point",
        "coordinates": [
          65.21387882279156,
          -35.56532700179311
        ]
      }
    },
    {
      "type": "Feature",
      "properties": {
        "norad_id": 30949,
        "name": "FENGYUN 1C DEB",
        "group": "fengyun-1c-debris",
        "lat": -54.19234339699995,
        "lon": 7.77564347993886,
        "alt_km": 785.8049352081052,
        "timestamp": "2025-12-27T13:34:49.574977+00:00",
        "meta_object_name": "FENGYUN 1C DEB",
        "meta_object_id": "1999-025BAP",
        "meta_epoch": "2025-12-26T22:49:37.701984",
        "meta_mean_motion": 14.14063305,
        "meta_eccentricity": 0.0116049,
        "meta_inclination": 98.6985,
        "meta_ra_of_asc_node": 354.9255,
        "meta_arg_of_pericenter": 268.961,
        "meta_mean_anomaly": 147.6145,
        "meta_ephemeris_type": 0,
        "meta_classification_type": "U",
        "meta_norad_cat_id": 30949,
        "meta_element_set_no": 999,
        "meta_rev_at_epoch": 96717,
        "meta_bstar": 0.00028102,
        "meta_mean_motion_dot": 5.26e-06,
        "meta_mean_motion_ddot": 0,
        "tle_line1": "1 30949U 99025BAP 25360.95113081  .00000526  00000+0  28102-3 0  9992",
        "tle_line2": "2 30949  98.6985 354.9255 0116049 268.9610 147.6145 14.14063305967173"
      },
      "geometry": {
        "type": "Point",
        "coordinates": [
          7.77564347993886,
          -54.19234339699995
        ]
      }
    },
    {
      "type": "Feature",
      "properties": {
        "norad_id": 30954,
        "name": "FENGYUN 1C DEB",
        "group": "fengyun-1c-debris",
        "lat": 33.892383287293654,
        "lon": 95.42301635928084,
        "alt_km": 872.2008856994571,
        "timestamp": "2025-12-27T13:34:49.574987+00:00",
        "meta_object_name": "FENGYUN 1C DEB",
        "meta_object_id": "1999-025BAU",
        "meta_epoch": "2025-12-27T02:07:18.153120",
        "meta_mean_motion": 14.14999136,
        "meta_eccentricity": 0.01288439,
        "meta_inclination": 98.7116,
        "meta_ra_of_asc_node": 100.8688,
        "meta_arg_of_pericenter": 146.6738,
        "meta_mean_anomaly": 338.3933,
        "meta_ephemeris_type": 0,
        "meta_classification_type": "U",
        "meta_norad_cat_id": 30954,
        "meta_element_set_no": 999,
        "meta_rev_at_epoch": 96590,
        "meta_bstar": 0.0013451381,
        "meta_mean_motion_dot": 2.779e-05,
        "meta_mean_motion_ddot": 0,
        "tle_line1": "1 30954U 99025BAU 25361.08840455  .00002779  00000+0  13451-2 0  9997",
        "tle_line2": "2 30954  98.7116 100.8688 0128843 146.6738 338.3933 14.14999136965905"
      },
      "geometry": {
        "type": "Point",
        "coordinates": [
          95.42301635928084,
          33.892383287293654
        ]
      }
    },
    {
      "type": "Feature",
      "properties": {
        "norad_id": 30956,
        "name": "FENGYUN 1C DEB",
        "group": "fengyun-1c-debris",
        "lat": -6.119540191335124,
        "lon": 36.23939376641467,
        "alt_km": 827.4909550455304,
        "timestamp": "2025-12-27T13:34:49.574997+00:00",
        "meta_object_name": "FENGYUN 1C DEB",
        "meta_object_id": "1999-025BAW",
        "meta_epoch": "2025-12-26T02:13:11.801280",
        "meta_mean_motion": 14.14253918,
        "meta_eccentricity": 0.00491981,
        "meta_inclination": 98.7599,
        "meta_ra_of_asc_node": 33.8477,
        "meta_arg_of_pericenter": 304.1342,
        "meta_mean_anomaly": 112.2138,
        "meta_ephemeris_type": 0,
        "meta_classification_type": "U",
        "meta_norad_cat_id": 30956,
        "meta_element_set_no": 999,
        "meta_rev_at_epoch": 96496,
        "meta_bstar": 0.0009001005,
        "meta_mean_motion_dot": 1.694e-05,
        "meta_mean_motion_ddot": 0,
        "tle_line1": "1 30956U 99025BAW 25360.09249770  .00001694  00000+0  90010-3 0  9994",
        "tle_line2": "2 30956  98.7599  33.8477 0049198 304.1342 112.2138 14.14253918964962"
      },
      "geometry": {
        "type": "Point",
        "coordinates": [
          36.23939376641467,
          -6.119540191335124
        ]
      }
    },
    {
      "type": "Feature",
      "properties": {
        "norad_id": 30960,
        "name": "FENGYUN 1C DEB",
        "group": "fengyun-1c-debris",
        "lat": 63.73999278255745,
        "lon": -42.261844247992826,
        "alt_km": 525.9016249415799,
        "timestamp": "2025-12-27T13:34:49.575007+00:00",
        "meta_object_name": "FENGYUN 1C DEB",
        "meta_object_id": "1999-025BBA",
        "meta_epoch": "2025-12-26T14:09:10.874016",
        "meta_mean_motion": 14.67134239,
        "meta_eccentricity": 0.0195894,
        "meta_inclination": 99.0007,
        "meta_ra_of_asc_node": 117.9267,
        "meta_arg_of_pericenter": 119.2795,
        "meta_mean_anomaly": 242.8143,
        "meta_ephemeris_type": 0,
        "meta_classification_type": "U",
        "meta_norad_cat_id": 30960,
        "meta_element_set_no": 999,
        "meta_rev_at_epoch": 98901,
        "meta_bstar": 0.0010081,
        "meta_mean_motion_dot": 7.504e-05,
        "meta_mean_motion_ddot": 0,
        "tle_line1": "1 30960U 99025BBA 25360.58970919  .00007504  00000+0  10081-2 0  9994",
        "tle_line2": "2 30960  99.0007 117.9267 0195894 119.2795 242.8143 14.67134239989019"
      },
      "geometry": {
        "type": "Point",
        "coordinates": [
          -42.261844247992826,
          63.73999278255745
        ]
      }
    },
    {
      "type": "Feature",
      "properties": {
        "norad_id": 30967,
        "name": "FENGYUN 1C DEB",
        "group": "fengyun-1c-debris",
        "lat": 2.217611302563301,
        "lon": 128.89816385850628,
        "alt_km": 640.1107779209106,
        "timestamp": "2025-12-27T13:34:49.575017+00:00",
        "meta_object_name": "FENGYUN 1C DEB",
        "meta_object_id": "1999-025BBH",
        "meta_epoch": "2025-12-27T02:52:39.663264",
        "meta_mean_motion": 14.5723526,
        "meta_eccentricity": 0.00950218,
        "meta_inclination": 98.7661,
        "meta_ra_of_asc_node": 308.0866,
        "meta_arg_of_pericenter": 195.2083,
        "meta_mean_anomaly": 164.6253,
        "meta_ephemeris_type": 0,
        "meta_classification_type": "U",
        "meta_norad_cat_id": 30967,
        "meta_element_set_no": 999,
        "meta_rev_at_epoch": 99223,
        "meta_bstar": 0.00079332802,
        "meta_mean_motion_dot": 3.758e-05,
        "meta_mean_motion_ddot": 0,
        "tle_line1": "1 30967U 99025BBH 25361.11990351  .00003758  00000+0  79333-3 0  9996",
        "tle_line2": "2 30967  98.7661 308.0866 0095021 195.2083 164.6253 14.57235260992237"
      },
      "geometry": {
        "type": "Point",
        "coordinates": [
          128.89816385850628,
          2.217611302563301
        ]
      }
    },
    {
      "type": "Feature",
      "properties": {
        "norad_id": 30971,
        "name": "FENGYUN 1C DEB",
        "group": "fengyun-1c-debris",
        "lat": 74.97443389336128,
        "lon": 10.181374765584001,
        "alt_km": 602.0907849310288,
        "timestamp": "2025-12-27T13:34:49.575027+00:00",
        "meta_object_name": "FENGYUN 1C DEB",
        "meta_object_id": "1999-025BBM",
        "meta_epoch": "2025-12-26T09:33:58.447296",
        "meta_mean_motion": 14.71817648,
        "meta_eccentricity": 0.0164096,
        "meta_inclination": 99.2079,
        "meta_ra_of_asc_node": 46.0406,
        "meta_arg_of_pericenter": 149.0944,
        "meta_mean_anomaly": 229.5467,
        "meta_ephemeris_type": 0,
        "meta_classification_type": "U",
        "meta_norad_cat_id": 30971,
        "meta_element_set_no": 999,
        "meta_rev_at_epoch": 99918,
        "meta_bstar": 0.00054953,
        "meta_mean_motion_dot": 4.174e-05,
        "meta_mean_motion_ddot": 0,
        "tle_line1": "1 30971U 99025BBM 25360.39859314  .00004174  00000+0  54953-3 0  9997",
        "tle_line2": "2 30971  99.2079  46.0406 0164096 149.0944 229.5467 14.71817648999183"
      },
      "geometry": {
        "type": "Point",
        "coordinates": [
          10.181374765584001,
          74.97443389336128
        ]
      }
    }
  ]
}